[Satellite]
VERSION=1.1
NAME=HAWKSAT 1
NICKNAME=HAWKSAT 1
TLE1=1 35004U 09028D   11059.45715931  .00023123  00000-0  33098-3 0  5300
TLE2=2 35004  40.4621  87.4120 0022632 160.2696 199.9008 15.55296192100493
